ONEWEB-0456             
1 51646U 22012AA  25343.51857401 -.00000725  00000+0 -21139-2 0  9990
2 51646  87.8822  74.0417 0001707  98.9223 261.2097 13.10373908184500
ONEWEB-0457             
1 51647U 22012AB  25343.49534281  .00000163  00000+0  43141-3 0  9998
2 51647  87.8802  74.0928 0001255 116.3029 243.8227 13.10375966184500
ONEWEB-0458             
1 51648U 22012AC  25343.51691383 -.00000703  00000+0 -20500-2 0  9994
2 51648  87.8816  74.0628 0001759 109.3524 250.7794 13.10373329184466
ONEWEB-0461             
1 51649U 22012AD  25343.46460360  .00000107  00000+0  24206-3 0  9992
2 51649  87.9122  43.5702 0001643 100.3057 259.8260 13.17649898188901
ONEWEB-0463             
1 51650U 22012AE  25343.44604268  .00000112  00000+0  25604-3 0  9998
2 51650  87.9104  43.6180 0001741 102.8036 257.3290 13.17648367188688
ONEWEB-0464             
1 51651U 22012AF  25343.51359258 -.00000574  00000+0 -16819-2 0  9994
2 51651  87.8804  74.0991 0001845  97.2710 262.8627 13.10371854184480
ONEWEB-0468             
1 51652U 22012AG  25343.52023083 -.00000635  00000+0 -18557-2 0  9999
2 51652  87.8810  74.0909 0001866 103.2805 256.8531 13.10374058184467
ONEWEB-0473             
1 51653U 22012AH  25343.50529989 -.00000336  00000+0 -99875-3 0  9995
2 51653  87.8806  74.0969 0001781 106.4308 253.7016 13.10370518184469
ONEWEB-0474             
1 51654U 22012AJ  25343.49700787  .00000032  00000+0  54161-4 0  9992
2 51654  87.8812  74.0648 0001902 101.1773 258.9568 13.10369598184458
ONEWEB-0475             
1 51655U 22012AK  25343.23004323  .00000024  00000+0  28323-4 0  9990
2 51655  87.9110  43.6499 0002471 103.2435 256.8972 13.17649301188671
ONEWEB-0490             
1 54113U 22138A   25343.44097131  .00000065  00000+0  13109-3 0  9993
2 54113  87.9207 342.7114 0001942  85.0826 275.0528 13.19724785151807
ONEWEB-0492             
1 54114U 22138B   25343.46623773  .00000033  00000+0  49240-4 0  9994
2 54114  87.9199 342.7217 0001827  81.5865 278.5475 13.19725193151812
ONEWEB-0495             
1 54115U 22138C   25343.44411795  .00000044  00000+0  76825-4 0  9993
2 54115  87.9193 342.7298 0002405  80.5166 279.6239 13.19723393151799
ONEWEB-0497             
1 54116U 22138D   25343.45676016  .00000049  00000+0  91093-4 0  9993
2 54116  87.9199 342.7136 0001855  86.4893 273.6452 13.19724176151787
ONEWEB-0499             
1 54117U 22138E   25343.51600212  .00000012  00000+0 -18512-5 0  9993
2 54117  87.9197 342.7149 0001994  91.3112 268.8249 13.19725578151803
ONEWEB-0500             
1 54118U 22138F   25343.44254732  .00000059  00000+0  11569-3 0  9991
2 54118  87.9200 342.7169 0001717  87.4252 272.7078 13.19723943151803
ONEWEB-0501             
1 54119U 22138G   25343.47256465  .00000074  00000+0  15224-3 0  9999
2 54119  87.9209 342.7091 0002127  84.8241 275.3135 13.19724425151788
ONEWEB-0502             
1 54120U 22138H   25343.45834458  .00000049  00000+0  90774-4 0  9999
2 54120  87.9207 342.6935 0002067  88.9846 271.1523 13.19724777151801
ONEWEB-0503             
1 54121U 22138J   25343.44728297  .00000040  00000+0  66450-4 0  9997
2 54121  87.9205 342.6998 0001860  97.1457 262.9887 13.19724467151794
ONEWEB-0504             
1 54122U 22138K   25343.51045907  .00000087  00000+0  18413-3 0  9992
2 54122  87.9200 342.7035 0002048  90.4157 269.7211 13.19723481151819
ONEWEB-0505             
1 54123U 22138L   25343.50730647  .00000066  00000+0  13190-3 0  9998
2 54123  87.9207 342.6939 0002312  86.0208 274.1189 13.19724246151792
ONEWEB-0506             
1 54124U 22138M   25343.48203803  .00000079  00000+0  16547-3 0  9998
2 54124  87.9206 342.6961 0002003  88.1724 271.9639 13.19724614151783
ONEWEB-0507             
1 54125U 22138N   25343.42675339  .00000122  00000+0  27341-3 0  9993
2 54125  87.9189 342.7427 0001960  84.8230 275.3127 13.19724359151829
ONEWEB-0508             
1 54126U 22138P   25343.42359749  .00000016  00000+0  80843-5 0  9998
2 54126  87.9198 342.7369 0002087  82.4670 277.6700 13.19725236151803
ONEWEB-0509             
1 54127U 22138Q   25343.47413517  .00000060  00000+0  11864-3 0  9992
2 54127  87.9208 342.6970 0001914  86.8721 273.2631 13.19723807151780
ONEWEB-0510             
1 54128U 22138R   25343.43647579 -.00000040  00000+0 -13048-3 0  9992
2 54128  87.9194 312.2774 0001341  92.5326 267.5961 13.20769617154235
ONEWEB-0511             
1 54129U 22138S   25343.47098309  .00000044  00000+0  77052-4 0  9996
2 54129  87.9211 342.7010 0001941  96.6890 263.4464 13.19724344151814
ONEWEB-0512             
1 54130U 22138T   25343.46308126  .00000082  00000+0  17168-3 0  9991
2 54130  87.9195 342.7274 0002143  88.5146 271.6232 13.19724965151787
ONEWEB-0513             
1 54131U 22138U   25343.47015704  .00000031  00000+0  45144-4 0  9990
2 54131  87.9209 342.6869 0002640  94.1730 265.9705 13.20259604151682
ONEWEB-0514             
1 54132U 22138V   25343.47887130  .00000015  00000+0  43682-5 0  9999
2 54132  87.9200 342.7089 0001719  91.9741 268.1588 13.19724067151808
ONEWEB-0515             
1 54133U 22138W   25343.42385925  .00000114  00000+0  24804-3 0  9993
2 54133  87.9202 312.2664 0001124  61.6670 298.4576 13.20770030154255
ONEWEB-0516             
1 54134U 22138X   25343.45360430  .00000040  00000+0  67146-4 0  9996
2 54134  87.9190 342.7342 0001822  84.8892 275.2448 13.19725047151806
ONEWEB-0517             
1 54135U 22138Y   25343.50887790  .00000065  00000+0  13045-3 0  9991
2 54135  87.9208 342.7026 0001882  98.6114 261.5232 13.19723733151812
ONEWEB-0518             
1 54136U 22138Z   25343.45202253  .00000051  00000+0  94356-4 0  9991
2 54136  87.9188 342.7364 0001934  86.8346 273.3008 13.19724491151802
ONEWEB-0519             
1 54137U 22138AA  25343.47731249  .00000053  00000+0  98929-4 0  9998
2 54137  87.9204 342.7003 0001905  96.2086 263.9264 13.19726393151819
ONEWEB-0520             
1 54138U 22138AB  25343.51204615  .00000037  00000+0  59875-4 0  9995
2 54138  87.9208 342.6975 0002034  84.7203 275.4162 13.19724537151800
ONEWEB-0521             
1 54139U 22138AC  25343.46940047  .00000044  00000+0  76604-4 0  9993
2 54139  87.9206 342.6905 0001768  96.6784 263.4550 13.19724657151745
ONEWEB-0522             
1 54140U 22138AD  25343.44886084  .00000056  00000+0  10784-3 0  9992
2 54140  87.9206 342.6960 0001931  87.7935 272.3419 13.19726710151788
ONEWEB-0523             
1 54141U 22138AE  25343.63848741 -.00000142  00000+0 -38114-3 0  9997
2 54141  87.9190 312.2416 0001058  97.5605 262.5649 13.20771493154287
ONEWEB-0524             
1 54142U 22138AF  25343.62745891  .00000122  00000+0  26816-3 0  9991
2 54142  87.9193 312.2462 0001336  52.5012 307.6242 13.20771123154284
ONEWEB-0525             
1 54143U 22138AG  25343.46782261  .00000028  00000+0  36966-4 0  9999
2 54143  87.9199 342.7123 0002048  84.8723 275.2643 13.19724824151805
ONEWEB-0526             
1 54144U 22138AH  25343.42516884  .00000085  00000+0  18004-3 0  9997
2 54144  87.9206 342.7094 0001843  86.7984 273.3360 13.19724025151778
ONEWEB-0529             
1 54145U 22138AJ  25343.42833133  .00000041  00000+0  70859-4 0  9996
2 54145  87.9192 342.7363 0001992  84.5390 275.5970 13.19724467151797
ONEWEB-0531             
1 54146U 22138AK  25343.61325361  .00000118  00000+0  25845-3 0  9996
2 54146  87.9199 312.2419 0000866  76.6231 283.4998 13.20770720154284
ONEWEB-0535             
1 54147U 22138AL  25343.46148753 -.00000006  00000+0 -47389-4 0  9994
2 54147  87.9203 342.6970 0001483  98.7491 261.3810 13.19727059151818
ONEWEB-0536             
1 54148U 22138AM  25343.44910032  .00000046  00000+0  81408-4 0  9992
2 54148  87.9190 312.3181 0000842  63.4934 296.6285 13.20773929154258
ONEWEB-0527             
1 54642U 22166A   25343.55121544 -.00000123  00000+0 -33015-3 0  9994
2 54642  87.9217 281.8238 0001795  76.1932 283.9402 13.21825132146488
ONEWEB-0528             
1 54643U 22166B   25343.55780503  .00000132  00000+0  28751-3 0  9990
2 54643  87.9218 281.8262 0001856  75.1272 285.0067 13.21828395146496
ONEWEB-0539             
1 54644U 22166C   25343.36857892  .00000020  00000+0  17438-4 0  9993
2 54644  87.9215 281.8297 0001970  81.5665 278.5692 13.21825971146461
ONEWEB-0540             
1 54645U 22166D   25343.60237603  .00000078  00000+0  15802-3 0  9998
2 54645  87.9215 281.8210 0001786  82.8333 277.3004 13.21824102146489
ONEWEB-0542             
1 54646U 22166E   25343.52984860  .00000065  00000+0  12537-3 0  9992
2 54646  87.9214 281.7939 0001984  89.7327 270.4034 13.21828351146482
ONEWEB-0545             
1 54647U 22166F   25343.57098776  .00000022  00000+0  21119-4 0  9990
2 54647  87.9216 281.8064 0001983  89.3781 270.7580 13.21826821146450
ONEWEB-0580             
1 54648U 22166G   25343.54465675  .00000117  00000+0  25136-3 0  9991
2 54648  87.9217 281.8105 0001784  88.8901 271.2438 13.21824848146494
ONEWEB-0582             
1 54649U 22166H   25343.58743697  .00000012  00000+0 -30081-5 0  9991
2 54649  87.9217 281.7949 0001889  93.5381 266.5969 13.21824708146470
ONEWEB-0583             
1 54650U 22166J   25343.59895502  .00000078  00000+0  15656-3 0  9997
2 54650  87.9216 281.8173 0001875  80.7539 279.3806 13.21824886146489
ONEWEB-0584             
1 54651U 22166K   25343.54299728  .00000105  00000+0  22179-3 0  9990
2 54651  87.9217 281.8149 0001704  89.8326 270.3003 13.21824319146468
ONEWEB-0585             
1 54652U 22166L   25343.56768382  .00000090  00000+0  18631-3 0  9991
2 54652  87.9215 281.7946 0001750  73.9363 286.1963 13.21827569146478
ONEWEB-0586             
1 54653U 22166M   25343.58086412  .00000113  00000+0  24296-3 0  9991
2 54653  87.9216 281.8173 0001826  83.0775 277.0567 13.21825275146477
ONEWEB-0587             
1 54654U 22166N   25343.36364275  .00000000  00000+0 -32209-4 0  9994
2 54654  87.9225 281.8162 0001744  65.0183 295.1132 13.21825367146604
